start=new Date('2022-08-24T00:00:00.000Z').valueOf();
sats=[{"COUNTRY_CODE":"US","MEAN_MOTION":"15.44224584","EPHEMERIS_TYPE":"0","MEAN_MOTION_DOT":"-0.01129405","TLE_LINE2":"2 53141  53.2175 223.8535 0001592  48.8011 129.0319 15.44224584  1304","MEAN_ANOMALY":"129.0319","OBJECT_TYPE":"PAYLOAD","FILE":"3545624","DECAY_DATE":null,"NORAD_CAT_ID":"53141","EPOCH":"2022-08-23T22:00:01.999584","REV_AT_EPOCH":"130","ECCENTRICITY":"0.00015920","PERIOD":"93.251","GP_ID":"210863740","ARG_OF_PERICENTER":"48.8011","RCS_SIZE":"LARGE","LAUNCH_DATE":"2022-07-17","TLE_LINE1":"1 53141U 22083K   22235.91668981 -.01129405  00000-0 -26451-1 0  9994","SEMIMAJOR_AXIS":"6811.794","MEAN_MOTION_DDOT":"0.0000000000000","BSTAR":"-0.02645100000000","SITE":"AFETR","INCLINATION":"53.2175","TIME_SYSTEM":"UTC","PERIAPSIS":"432.575","APOAPSIS":"434.744","REF_FRAME":"TEME","CENTER_NAME":"EARTH","MEAN_ELEMENT_THEORY":"SGP4","ELEMENT_SET_NO":"999","RA_OF_ASC_NODE":"223.8535","OBJECT_ID":"2022-083K","OBJECT_NAME":"STARLINK-4103","CLASSIFICATION_TYPE":"U"},{"COUNTRY_CODE":"US","FILE":"3545624","OBJECT_TYPE":"PAYLOAD","TLE_LINE2":"2 53142  53.2174 223.8205 0001523  52.9887 113.7242 15.43288212  1301","MEAN_ANOMALY":"113.7242","MEAN_MOTION_DOT":"-0.01129097","EPHEMERIS_TYPE":"0","MEAN_MOTION":"15.43288212","PERIOD":"93.307","ECCENTRICITY":"0.00015230","EPOCH":"2022-08-23T22:00:01.999584","NORAD_CAT_ID":"53142","REV_AT_EPOCH":"130","DECAY_DATE":null,"TLE_LINE1":"1 53142U 22083L   22235.91668981 -.01129097  00000-0 -27301-1 0  9997","LAUNCH_DATE":"2022-07-17","RCS_SIZE":"LARGE","GP_ID":"210863470","ARG_OF_PERICENTER":"52.9887","INCLINATION":"53.2174","SITE":"AFETR","BSTAR":"-0.02730100000000","MEAN_MOTION_DDOT":"0.0000000000000","SEMIMAJOR_AXIS":"6814.549","TIME_SYSTEM":"UTC","ELEMENT_SET_NO":"999","MEAN_ELEMENT_THEORY":"SGP4","CENTER_NAME":"EARTH","REF_FRAME":"TEME","PERIAPSIS":"435.377","APOAPSIS":"437.452","CLASSIFICATION_TYPE":"U","OBJECT_ID":"2022-083L","OBJECT_NAME":"STARLINK-4101","RA_OF_ASC_NODE":"223.8205"},{"LAUNCH_DATE":"2022-07-17","TLE_LINE1":"1 53143U 22083M   22235.91668981 -.01129717  00000-0 -26179-1 0  9999","RCS_SIZE":"LARGE","GP_ID":"210864021","ARG_OF_PERICENTER":"64.4438","PERIOD":"93.232","ECCENTRICITY":"0.00013970","NORAD_CAT_ID":"53143","EPOCH":"2022-08-23T22:00:01.999584","REV_AT_EPOCH":"130","DECAY_DATE":null,"FILE":"3545624","OBJECT_TYPE":"PAYLOAD","MEAN_MOTION_DOT":"-0.01129717","TLE_LINE2":"2 53143  53.2175 223.8642 0001397  64.4438 116.8048 15.44536827  1304","MEAN_ANOMALY":"116.8048","MEAN_MOTION":"15.44536827","EPHEMERIS_TYPE":"0","COUNTRY_CODE":"US","CLASSIFICATION_TYPE":"U","RA_OF_ASC_NODE":"223.8642","OBJECT_NAME":"STARLINK-4102","OBJECT_ID":"2022-083M","ELEMENT_SET_NO":"999","CENTER_NAME":"EARTH","MEAN_ELEMENT_THEORY":"SGP4","APOAPSIS":"433.693","PERIAPSIS":"431.790","REF_FRAME":"TEME","TIME_SYSTEM":"UTC","INCLINATION":"53.2175","SITE":"AFETR","MEAN_MOTION_DDOT":"0.0000000000000","BSTAR":"-0.02617900000000","SEMIMAJOR_AXIS":"6810.876"},{"TLE_LINE1":"1 53144U 22083N   22235.91668981 -.01129451  00000-0 -27023-1 0  9994","LAUNCH_DATE":"2022-07-17","RCS_SIZE":"LARGE","GP_ID":"210863196","ARG_OF_PERICENTER":"70.7532","PERIOD":"93.288","ECCENTRICITY":"0.00013500","NORAD_CAT_ID":"53144","REV_AT_EPOCH":"130","EPOCH":"2022-08-23T22:00:01.999584","DECAY_DATE":null,"FILE":"3545624","OBJECT_TYPE":"PAYLOAD","TLE_LINE2":"2 53144  53.2174 223.8316 0001350  70.7532  99.8119 15.43600507  1301","MEAN_ANOMALY":"99.8119","MEAN_MOTION_DOT":"-0.01129451","EPHEMERIS_TYPE":"0","MEAN_MOTION":"15.43600507","COUNTRY_CODE":"US","CLASSIFICATION_TYPE":"U","OBJECT_ID":"2022-083N","OBJECT_NAME":"STARLINK-4100","RA_OF_ASC_NODE":"223.8316","ELEMENT_SET_NO":"999","MEAN_ELEMENT_THEORY":"SGP4","CENTER_NAME":"EARTH","REF_FRAME":"TEME","APOAPSIS":"436.415","PERIAPSIS":"434.575","TIME_SYSTEM":"UTC","INCLINATION":"53.2174","SITE":"AFETR","BSTAR":"-0.02702300000000","MEAN_MOTION_DDOT":"0.0000000000000","SEMIMAJOR_AXIS":"6813.630"},{"TIME_SYSTEM":"UTC","SITE":"AFETR","INCLINATION":"53.2175","SEMIMAJOR_AXIS":"6809.042","MEAN_MOTION_DDOT":"0.0000000000000","BSTAR":"-0.02562100000000","CLASSIFICATION_TYPE":"U","RA_OF_ASC_NODE":"223.8855","OBJECT_NAME":"STARLINK-4106","OBJECT_ID":"2022-083P","CENTER_NAME":"EARTH","MEAN_ELEMENT_THEORY":"SGP4","ELEMENT_SET_NO":"999","APOAPSIS":"432.127","PERIAPSIS":"429.687","REF_FRAME":"TEME","MEAN_MOTION_DOT":"-0.01129703","MEAN_ANOMALY":"148.3424","TLE_LINE2":"2 53145  53.2175 223.8855 0001792  39.3008 148.3424 15.45160930  1302","OBJECT_TYPE":"PAYLOAD","FILE":"3545624","MEAN_MOTION":"15.45160930","EPHEMERIS_TYPE":"0","COUNTRY_CODE":"US","RCS_SIZE":"LARGE","LAUNCH_DATE":"2022-07-17","TLE_LINE1":"1 53145U 22083P   22235.91668981 -.01129703  00000-0 -25621-1 0  9997","ARG_OF_PERICENTER":"39.3008","GP_ID":"210863328","ECCENTRICITY":"0.00017920","PERIOD":"93.194","DECAY_DATE":null,"REV_AT_EPOCH":"130","NORAD_CAT_ID":"53145","EPOCH":"2022-08-23T22:00:01.999584"},{"REF_FRAME":"TEME","APOAPSIS":"435.488","PERIAPSIS":"433.665","MEAN_ELEMENT_THEORY":"SGP4","CENTER_NAME":"EARTH","ELEMENT_SET_NO":"999","OBJECT_NAME":"STARLINK-4099","OBJECT_ID":"2022-083Q","RA_OF_ASC_NODE":"223.8425","CLASSIFICATION_TYPE":"U","SEMIMAJOR_AXIS":"6812.712","BSTAR":"-0.02674100000000","MEAN_MOTION_DDOT":"0.0000000000000","SITE":"AFETR","INCLINATION":"53.2175","TIME_SYSTEM":"UTC","DECAY_DATE":null,"EPOCH":"2022-08-23T22:00:01.999584","NORAD_CAT_ID":"53146","REV_AT_EPOCH":"130","ECCENTRICITY":"0.00013380","PERIOD":"93.270","GP_ID":"210863058","ARG_OF_PERICENTER":"73.1798","RCS_SIZE":"LARGE","TLE_LINE1":"1 53146U 22083Q   22235.91668981 -.01129600  00000-0 -26741-1 0  9998","LAUNCH_DATE":"2022-07-17","COUNTRY_CODE":"US","EPHEMERIS_TYPE":"0","MEAN_MOTION":"15.43912656","TLE_LINE2":"2 53146  53.2175 223.8425 0001338  73.1798 101.0921 15.43912656  1300","MEAN_ANOMALY":"101.0921","MEAN_MOTION_DOT":"-0.01129600","OBJECT_TYPE":"PAYLOAD","FILE":"3545624"},{"CLASSIFICATION_TYPE":"U","OBJECT_NAME":"STARLINK-4094","OBJECT_ID":"2022-083R","RA_OF_ASC_NODE":"223.8960","MEAN_ELEMENT_THEORY":"SGP4","CENTER_NAME":"EARTH","ELEMENT_SET_NO":"999","REF_FRAME":"TEME","PERIAPSIS":"428.802","APOAPSIS":"431.179","TIME_SYSTEM":"UTC","SITE":"AFETR","INCLINATION":"53.2175","SEMIMAJOR_AXIS":"6808.125","BSTAR":"-0.02535000000000","MEAN_MOTION_DDOT":"0.0000000000000","RCS_SIZE":"LARGE","TLE_LINE1":"1 53147U 22083R   22235.91668981 -.01129815  00000-0 -25350-1 0  9992","LAUNCH_DATE":"2022-07-17","ARG_OF_PERICENTER":"41.0573","GP_ID":"210863880","ECCENTRICITY":"0.00017460","PERIOD":"93.175","DECAY_DATE":null,"REV_AT_EPOCH":"130","EPOCH":"2022-08-23T22:00:01.999584","NORAD_CAT_ID":"53147","TLE_LINE2":"2 53147  53.2175 223.8960 0001746  41.0573 149.5649 15.45473060  1300","MEAN_ANOMALY":"149.5649","MEAN_MOTION_DOT":"-0.01129815","FILE":"3545624","OBJECT_TYPE":"PAYLOAD","EPHEMERIS_TYPE":"0","MEAN_MOTION":"15.45473060","COUNTRY_CODE":"US"},{"CLASSIFICATION_TYPE":"U","RA_OF_ASC_NODE":"223.8748","OBJECT_NAME":"STARLINK-4066","OBJECT_ID":"2022-083S","CENTER_NAME":"EARTH","MEAN_ELEMENT_THEORY":"SGP4","ELEMENT_SET_NO":"999","APOAPSIS":"433.014","PERIAPSIS":"430.635","REF_FRAME":"TEME","TIME_SYSTEM":"UTC","SITE":"AFETR","INCLINATION":"53.2175","SEMIMAJOR_AXIS":"6809.959","MEAN_MOTION_DDOT":"0.0000000000000","BSTAR":"-0.02589500000000","RCS_SIZE":"LARGE","LAUNCH_DATE":"2022-07-17","TLE_LINE1":"1 53148U 22083S   22235.91668981 -.01129595  00000-0 -25895-1 0  9992","GP_ID":"210863610","ARG_OF_PERICENTER":"41.1856","ECCENTRICITY":"0.00017470","PERIOD":"93.213","DECAY_DATE":null,"NORAD_CAT_ID":"53148","EPOCH":"2022-08-23T22:00:01.999584","REV_AT_EPOCH":"130","MEAN_MOTION_DOT":"-0.01129595","MEAN_ANOMALY":"143.3330","TLE_LINE2":"2 53148  53.2175 223.8748 0001747  41.1856 143.3330 15.44848808  1305","FILE":"3545624","OBJECT_TYPE":"PAYLOAD","MEAN_MOTION":"15.44848808","EPHEMERIS_TYPE":"0","COUNTRY_CODE":"US"},{"RA_OF_ASC_NODE":"222.1007","OBJECT_NAME":"STARLINK-4021","OBJECT_ID":"2022-083T","CLASSIFICATION_TYPE":"U","PERIAPSIS":"347.898","APOAPSIS":"351.715","REF_FRAME":"TEME","ELEMENT_SET_NO":"999","CENTER_NAME":"EARTH","MEAN_ELEMENT_THEORY":"SGP4","TIME_SYSTEM":"UTC","MEAN_MOTION_DDOT":"0.0000000000000","BSTAR":"0.00047787000000","SEMIMAJOR_AXIS":"6727.941","INCLINATION":"53.2131","SITE":"AFETR","GP_ID":"210863741","ARG_OF_PERICENTER":"16.6390","LAUNCH_DATE":"2022-07-17","TLE_LINE1":"1 53149U 22083T   22235.91668981  .00066944  00000-0  47787-3 0  9994","RCS_SIZE":"LARGE","EPOCH":"2022-08-23T22:00:01.999584","REV_AT_EPOCH":"130","NORAD_CAT_ID":"53149","DECAY_DATE":null,"PERIOD":"91.534","ECCENTRICITY":"0.00028370","MEAN_MOTION":"15.73183763","EPHEMERIS_TYPE":"0","FILE":"3545624","OBJECT_TYPE":"PAYLOAD","MEAN_MOTION_DOT":"0.00066944","TLE_LINE2":"2 53149  53.2131 222.1007 0002837  16.6390 289.5721 15.73183763  1300","MEAN_ANOMALY":"289.5721","COUNTRY_CODE":"US"},{"ELEMENT_SET_NO":"999","MEAN_ELEMENT_THEORY":"SGP4","CENTER_NAME":"EARTH","REF_FRAME":"TEME","APOAPSIS":"351.771","PERIAPSIS":"347.863","CLASSIFICATION_TYPE":"U","OBJECT_ID":"2022-083U","OBJECT_NAME":"STARLINK-4038","RA_OF_ASC_NODE":"222.1142","INCLINATION":"53.2129","SITE":"AFETR","BSTAR":"0.00048697000000","MEAN_MOTION_DDOT":"0.0000000000000","SEMIMAJOR_AXIS":"6727.952","TIME_SYSTEM":"UTC","PERIOD":"91.534","ECCENTRICITY":"0.00029040","NORAD_CAT_ID":"53150","REV_AT_EPOCH":"130","EPOCH":"2022-08-23T22:00:01.999584","DECAY_DATE":null,"TLE_LINE1":"1 53150U 22083U   22235.91668981  .00068231  00000-0  48697-3 0  9998","LAUNCH_DATE":"2022-07-17","RCS_SIZE":"LARGE","GP_ID":"210863471","ARG_OF_PERICENTER":"7.0442","COUNTRY_CODE":"US","FILE":"3545624","OBJECT_TYPE":"PAYLOAD","TLE_LINE2":"2 53150  53.2129 222.1142 0002904   7.0442 292.0182 15.73180043  1304","MEAN_ANOMALY":"292.0182","MEAN_MOTION_DOT":"0.00068231","EPHEMERIS_TYPE":"0","MEAN_MOTION":"15.73180043"}];
